{"type": "FeatureCollection", "features": [ {"type": "Feature", "properties": {"norad_id": 40664, "name": "SKY MEXICO-1", "group": "intelsat", "lat": 0.0007043597133627716, "lon": 143.12080619678898, "alt_km": 35794.21032137022, "timestamp": "2025-12-18T08:58:43.059812+00:00", "meta": {"OBJECT_NAME": "SKY MEXICO-1", "OBJECT_ID": "2015-026B", "EPOCH": "2025-12-17T17:33:45.798912", "MEAN_MOTION": 1.00271097, "ECCENTRICITY": 0.00023995, "INCLINATION": 0.0161, "RA_OF_ASC_NODE": 308.5816, "ARG_OF_PERICENTER": 335.6425, "MEAN_ANOMALY": 347.0559, "EPHEMERIS_TYPE": 0, "CLASSIFICATION_TYPE": "U", "NORAD_CAT_ID": 40664, "ELEMENT_SET_NO": 999, "REV_AT_EPOCH": 3863, "BSTAR": 0, "MEAN_MOTION_DOT": -2.09e-06, "MEAN_MOTION_DDOT": 0}, "tle": {"line1": "1 40664U 15026B   25351.73178008 -.00000209  00000+0  00000+0 0  9994", "line2": "2 40664   0.0161 308.5816 0002399 335.6425 347.0559  1.00271097 38632"}}, "geometry": {"type": "Point", "coordinates": [143.12080619678898, 0.0007043597133627716]}}, {"type": "Feature", "properties": {"norad_id": 40874, "name": "INTELSAT 34 (IS-34)", "group": "intelsat", "lat": -0.007172818213600311, "lon": 166.40135536344374, "alt_km": 35784.19021909694, "timestamp": "2025-12-18T08:58:43.059824+00:00", "meta": {"OBJECT_NAME": "INTELSAT 34 (IS-34)", "OBJECT_ID": "2015-039A", "EPOCH": "2025-12-17T18:11:54.551328", "MEAN_MOTION": 1.00270196, "ECCENTRICITY": 6.286e-05, "INCLINATION": 0.014, "RA_OF_ASC_NODE": 329.1951, "ARG_OF_PERICENTER": 173.2674, "MEAN_ANOMALY": 161.6423, "EPHEMERIS_TYPE": 0, "CLASSIFICATION_TYPE": "U", "NORAD_CAT_ID": 40874, "ELEMENT_SET_NO": 999, "REV_AT_EPOCH": 3780, "BSTAR": 0, "MEAN_MOTION_DOT": -2.6e-06, "MEAN_MOTION_DDOT": 0}, "tle": {"line1": "1 40874U 15039A   25351.75827027 -.00000260  00000+0  00000+0 0  9992", "line2": "2 40874   0.0140 329.1951 0000628 173.2674 161.6423  1.00270196 37803"}}, "geometry": {"type": "Point", "coordinates": [166.40135536344374, -0.007172818213600311]}}, {"type": "Feature", "properties": {"norad_id": 41581, "name": "INTELSAT 31 (IS-31)", "group": "intelsat", "lat": 0.0009865770125329582, "lon": 126.83619491144768, "alt_km": 35784.107540213896, "timestamp": "2025-12-18T08:58:43.059836+00:00", "meta": {"OBJECT_NAME": "INTELSAT 31 (IS-31)", "OBJECT_ID": "2016-035A", "EPOCH": "2025-12-17T14:35:00.320640", "MEAN_MOTION": 1.00272697, "ECCENTRICITY": 0.00018355, "INCLINATION": 0.0215, "RA_OF_ASC_NODE": 273.4234, "ARG_OF_PERICENTER": 290.0377, "MEAN_ANOMALY": 6.7212, "EPHEMERIS_TYPE": 0, "CLASSIFICATION_TYPE": "U", "NORAD_CAT_ID": 41581, "ELEMENT_SET_NO": 999, "REV_AT_EPOCH": 3486, "BSTAR": 0, "MEAN_MOTION_DOT": -1.26e-06, "MEAN_MOTION_DDOT": 0}, "tle": {"line1": "1 41581U 16035A   25351.60764260 -.00000126  00000+0  00000+0 0  9999", "line2": "2 41581   0.0215 273.4234 0001835 290.0377   6.7212  1.00272697 34862"}}, "geometry": {"type": "Point", "coordinates": [126.83619491144768, 0.0009865770125329582]}}, {"type": "Feature", "properties": {"norad_id": 41747, "name": "INTELSAT 36 (IS-36)", "group": "intelsat", "lat": -0.034891128066403224, "lon": -69.62204365384437, "alt_km": 35782.431607511266, "timestamp": "2025-12-18T08:58:43.059847+00:00", "meta": {"OBJECT_NAME": "INTELSAT 36 (IS-36)", "OBJECT_ID": "2016-053A", "EPOCH": "2025-12-17T19:52:21.823968", "MEAN_MOTION": 1.00271258, "ECCENTRICITY": 0.00011909, "INCLINATION": 0.0123, "RA_OF_ASC_NODE": 8.954, "ARG_OF_PERICENTER": 322.3633, "MEAN_ANOMALY": 121.9554, "EPHEMERIS_TYPE": 0, "CLASSIFICATION_TYPE": "U", "NORAD_CAT_ID": 41747, "ELEMENT_SET_NO": 999, "REV_AT_EPOCH": 3413, "BSTAR": 0, "MEAN_MOTION_DOT": 1e-08, "MEAN_MOTION_DDOT": 0}, "tle": {"line1": "1 41747U 16053A   25351.82803037  .00000001  00000+0  00000+0 0  9994", "line2": "2 41747   0.0123   8.9540 0001190 322.3633 121.9554  1.00271258 34134"}}, "geometry": {"type": "Point", "coordinates": [-69.62204365384437, -0.034891128066403224]}}, {"type": "Feature", "properties": {"norad_id": 41945, "name": "INTELSAT 32E (IS-32E)", "group": "intelsat", "lat": 0.01863086515234407, "lon": 178.73343552993657, "alt_km": 35788.84016676377, "timestamp": "2025-12-18T08:58:43.059859+00:00", "meta": {"OBJECT_NAME": "INTELSAT 32E (IS-32E)", "OBJECT_ID": "2017-007B", "EPOCH": "2025-12-17T18:15:24.217344", "MEAN_MOTION": 1.00270449, "ECCENTRICITY": 6.51e-05, "INCLINATION": 0.0291, "RA_OF_ASC_NODE": 70.937, "ARG_OF_PERICENTER": 319.6309, "MEAN_ANOMALY": 286.7432, "EPHEMERIS_TYPE": 0, "CLASSIFICATION_TYPE": "U", "NORAD_CAT_ID": 41945, "ELEMENT_SET_NO": 999, "REV_AT_EPOCH": 3240, "BSTAR": 0, "MEAN_MOTION_DOT": -2.44e-06, "MEAN_MOTION_DDOT": 0}, "tle": {"line1": "1 41945U 17007B   25351.76069696 -.00000244  00000+0  00000+0 0  9992", "line2": "2 41945   0.0291  70.9370 0000651 319.6309 286.7432  1.00270449 32404"}}, "geometry": {"type": "Point", "coordinates": [178.73343552993657, 0.01863086515234407]}}, {"type": "Feature", "properties": {"norad_id": 42818, "name": "INTELSAT 35E (IS-35E)", "group": "intelsat", "lat": -0.005948468074587862, "lon": -172.61644247393076, "alt_km": 35785.733001384426, "timestamp": "2025-12-18T08:58:43.059870+00:00", "meta": {"OBJECT_NAME": "INTELSAT 35E (IS-35E)", "OBJECT_ID": "2017-041A", "EPOCH": "2025-12-17T18:17:53.977056", "MEAN_MOTION": 1.00270002, "ECCENTRICITY": 0.00018393, "INCLINATION": 0.0263, "RA_OF_ASC_NODE": 8.6566, "ARG_OF_PERICENTER": 262.1498, "MEAN_ANOMALY": 55.8065, "EPHEMERIS_TYPE": 0, "CLASSIFICATION_TYPE": "U", "NORAD_CAT_ID": 42818, "ELEMENT_SET_NO": 999, "REV_AT_EPOCH": 3099, "BSTAR": 0, "MEAN_MOTION_DOT": 0, "MEAN_MOTION_DDOT": 0}, "tle": {"line1": "1 42818U 17041A   25351.76243029  .00000000  00000+0  00000+0 0  9993", "line2": "2 42818   0.0263   8.6566 0001839 262.1498  55.8065  1.00270002 30992"}}, "geometry": {"type": "Point", "coordinates": [-172.61644247393076, -0.005948468074587862]}}, {"type": "Feature", "properties": {"norad_id": 42950, "name": "INTELSAT 37E (IS-37E)", "group": "intelsat", "lat": -0.027421861825321303, "lon": -156.12328823341855, "alt_km": 35778.71308442938, "timestamp": "2025-12-18T08:58:43.059881+00:00", "meta": {"OBJECT_NAME": "INTELSAT 37E (IS-37E)", "OBJECT_ID": "2017-059A", "EPOCH": "2025-12-17T18:22:38.523360", "MEAN_MOTION": 1.00271247, "ECCENTRICITY": 0.00029633, "INCLINATION": 0.0112, "RA_OF_ASC_NODE": 324.2506, "ARG_OF_PERICENTER": 292.6451, "MEAN_ANOMALY": 87.4027, "EPHEMERIS_TYPE": 0, "CLASSIFICATION_TYPE": "U", "NORAD_CAT_ID": 42950, "ELEMENT_SET_NO": 999, "REV_AT_EPOCH": 3024, "BSTAR": 0, "MEAN_MOTION_DOT": -1.16e-06, "MEAN_MOTION_DDOT": 0}, "tle": {"line1": "1 42950U 17059A   25351.76572365 -.00000116  00000+0  00000+0 0  9996", "line2": "2 42950   0.0112 324.2506 0002963 292.6451  87.4027  1.00271247 30248"}}, "geometry": {"type": "Point", "coordinates": [-156.12328823341855, -0.027421861825321303]}}, {"type": "Feature", "properties": {"norad_id": 43632, "name": "AZERSPACE 2 (IS-38)", "group": "intelsat", "lat": -0.05256677243216662, "lon": -92.998674907297, "alt_km": 35781.32171038646, "timestamp": "2025-12-18T08:58:43.059892+00:00", "meta": {"OBJECT_NAME": "AZERSPACE 2 (IS-38)", "OBJECT_ID": "2018-074A", "EPOCH": "2025-12-17T20:50:38.634144", "MEAN_MOTION": 1.00271271, "ECCENTRICITY": 0.00011585, "INCLINATION": 0.0274, "RA_OF_ASC_NODE": 7.9271, "ARG_OF_PERICENTER": 267.8079, "MEAN_ANOMALY": 168.7639, "EPHEMERIS_TYPE": 0, "CLASSIFICATION_TYPE": "U", "NORAD_CAT_ID": 43632, "ELEMENT_SET_NO": 999, "REV_AT_EPOCH": 2663, "BSTAR": 0, "MEAN_MOTION_DOT": 0, "MEAN_MOTION_DDOT": 0}, "tle": {"line1": "1 43632U 18074A   25351.86850271  .00000000  00000+0  00000+0 0  9999", "line2": "2 43632   0.0274   7.9271 0001158 267.8079 168.7639  1.00271271 26631"}}, "geometry": {"type": "Point", "coordinates": [-92.998674907297, -0.05256677243216662]}}, {"type": "Feature", "properties": {"norad_id": 43633, "name": "HORIZONS-3E", "group": "intelsat", "lat": 0.02206485437730554, "lon": 30.897371474956756, "alt_km": 35786.530653171074, "timestamp": "2025-12-18T08:58:43.059904+00:00", "meta": {"OBJECT_NAME": "HORIZONS-3E", "OBJECT_ID": "2018-074B", "EPOCH": "2025-12-17T20:58:44.087232", "MEAN_MOTION": 1.00271852, "ECCENTRICITY": 7.224e-05, "INCLINATION": 0.0529, "RA_OF_ASC_NODE": 183.9113, "ARG_OF_PERICENTER": 108.1124, "MEAN_ANOMALY": 278.3884, "EPHEMERIS_TYPE": 0, "CLASSIFICATION_TYPE": "U", "NORAD_CAT_ID": 43633, "ELEMENT_SET_NO": 999, "REV_AT_EPOCH": 2652, "BSTAR": 0, "MEAN_MOTION_DOT": -5e-08, "MEAN_MOTION_DDOT": 0}, "tle": {"line1": "1 43633U 18074B   25351.87412138 -.00000005  00000+0  00000+0 0  9993", "line2": "2 43633   0.0529 183.9113 0000722 108.1124 278.3884  1.00271852 26522"}}, "geometry": {"type": "Point", "coordinates": [30.897371474956756, 0.02206485437730554]}}, {"type": "Feature", "properties": {"norad_id": 44333, "name": "AT&T T-16", "group": "intelsat", "lat": 0.03151134288482875, "lon": 121.0325698893819, "alt_km": 35783.477038079276, "timestamp": "2025-12-18T08:58:43.059915+00:00", "meta": {"OBJECT_NAME": "AT&T T-16", "OBJECT_ID": "2019-034A", "EPOCH": "2025-12-17T21:24:26.623584", "MEAN_MOTION": 1.00269566, "ECCENTRICITY": 7.792e-05, "INCLINATION": 0.0259, "RA_OF_ASC_NODE": 66.1144, "ARG_OF_PERICENTER": 65.1136, "MEAN_ANOMALY": 175.7779, "EPHEMERIS_TYPE": 0, "CLASSIFICATION_TYPE": "U", "NORAD_CAT_ID": 44333, "ELEMENT_SET_NO": 999, "REV_AT_EPOCH": 2381, "BSTAR": 0, "MEAN_MOTION_DOT": -9e-07, "MEAN_MOTION_DDOT": 0}, "tle": {"line1": "1 44333U 19034A   25351.89197481 -.00000090  00000+0  00000+0 0  9995", "line2": "2 44333   0.0259  66.1144 0000779  65.1136 175.7779  1.00269566 23814"}}, "geometry": {"type": "Point", "coordinates": [121.0325698893819, 0.03151134288482875]}}]}